CCSDS_OMM_VERS = 2.0
CREATION_DATE  = 
ORIGINATOR     = 

OBJECT_NAME    = STARLINK-34733
OBJECT_ID      = 2025-263C
CENTER_NAME    = EARTH
REF_FRAME      = TEME
TIME_SYSTEM    = UTC
MEAN_ELEMENT_THEORY = SGP/SGP4

EPOCH          = 2025-12-07T22:00:03.000096
MEAN_MOTION    = 15.51847124
ECCENTRICITY   = .00014195
INCLINATION    = 43.0002
RA_OF_ASC_NODE = 153.3730
ARG_OF_PERICENTER = 276.4858
MEAN_ANOMALY   = 53.7250

EPHEMERIS_TYPE = 0
CLASSIFICATION_TYPE = U
NORAD_CAT_ID   = 66487
ELEMENT_SET_NO = 999
REV_AT_EPOCH   = 486
BSTAR          = -.29690518E-1
MEAN_MOTION_DOT = -.1636128E-1
MEAN_MOTION_DDOT = 0

CCSDS_OMM_VERS = 2.0
CREATION_DATE  = 
ORIGINATOR     = 

OBJECT_NAME    = STARLINK-35515
OBJECT_ID      = 2025-263D
CENTER_NAME    = EARTH
REF_FRAME      = TEME
TIME_SYSTEM    = UTC
MEAN_ELEMENT_THEORY = SGP/SGP4

EPOCH          = 2025-12-07T22:00:03.000096
MEAN_MOTION    = 15.51845792
ECCENTRICITY   = .00013336
INCLINATION    = 43.0002
RA_OF_ASC_NODE = 153.3676
ARG_OF_PERICENTER = 276.7551
MEAN_ANOMALY   = 55.3721

EPHEMERIS_TYPE = 0
CLASSIFICATION_TYPE = U
NORAD_CAT_ID   = 66488
ELEMENT_SET_NO = 999
REV_AT_EPOCH   = 486
BSTAR          = -.29639992E-1
MEAN_MOTION_DOT = -.1633515E-1
MEAN_MOTION_DDOT = 0

CCSDS_OMM_VERS = 2.0
CREATION_DATE  = 
ORIGINATOR     = 

OBJECT_NAME    = STARLINK-35696
OBJECT_ID      = 2025-263E
CENTER_NAME    = EARTH
REF_FRAME      = TEME
TIME_SYSTEM    = UTC
MEAN_ELEMENT_THEORY = SGP/SGP4

EPOCH          = 2025-12-07T22:00:03.000096
MEAN_MOTION    = 15.51845532
ECCENTRICITY   = .00014516
INCLINATION    = 43.0002
RA_OF_ASC_NODE = 153.3625
ARG_OF_PERICENTER = 278.5846
MEAN_ANOMALY   = 55.4633

EPHEMERIS_TYPE = 0
CLASSIFICATION_TYPE = U
NORAD_CAT_ID   = 66489
ELEMENT_SET_NO = 999
REV_AT_EPOCH   = 486
BSTAR          = -.29720591E-1
MEAN_MOTION_DOT = -.1637547E-1
MEAN_MOTION_DDOT = 0

CCSDS_OMM_VERS = 2.0
CREATION_DATE  = 
ORIGINATOR     = 

OBJECT_NAME    = STARLINK-35693
OBJECT_ID      = 2025-263F
CENTER_NAME    = EARTH
REF_FRAME      = TEME
TIME_SYSTEM    = UTC
MEAN_ELEMENT_THEORY = SGP/SGP4

EPOCH          = 2025-12-07T22:00:03.000096
MEAN_MOTION    = 15.51847196
ECCENTRICITY   = .00013496
INCLINATION    = 43.0002
RA_OF_ASC_NODE = 153.3579
ARG_OF_PERICENTER = 277.7975
MEAN_ANOMALY   = 58.1645

EPHEMERIS_TYPE = 0
CLASSIFICATION_TYPE = U
NORAD_CAT_ID   = 66490
ELEMENT_SET_NO = 999
REV_AT_EPOCH   = 486
BSTAR          = -.29724165E-1
MEAN_MOTION_DOT = -.1637766E-1
MEAN_MOTION_DDOT = 0

CCSDS_OMM_VERS = 2.0
CREATION_DATE  = 
ORIGINATOR     = 

OBJECT_NAME    = STARLINK-35663
OBJECT_ID      = 2025-263G
CENTER_NAME    = EARTH
REF_FRAME      = TEME
TIME_SYSTEM    = UTC
MEAN_ELEMENT_THEORY = SGP/SGP4

EPOCH          = 2025-12-07T22:00:03.000096
MEAN_MOTION    = 15.51849834
ECCENTRICITY   = .00014723
INCLINATION    = 43.0001
RA_OF_ASC_NODE = 153.3480
ARG_OF_PERICENTER = 278.6651
MEAN_ANOMALY   = 61.1303

EPHEMERIS_TYPE = 0
CLASSIFICATION_TYPE = U
NORAD_CAT_ID   = 66491
ELEMENT_SET_NO = 999
REV_AT_EPOCH   = 486
BSTAR          = -.29844638E-1
MEAN_MOTION_DOT = -.1643926E-1
MEAN_MOTION_DDOT = 0

CCSDS_OMM_VERS = 2.0
CREATION_DATE  = 
ORIGINATOR     = 

OBJECT_NAME    = STARLINK-35673
OBJECT_ID      = 2025-263H
CENTER_NAME    = EARTH
REF_FRAME      = TEME
TIME_SYSTEM    = UTC
MEAN_ELEMENT_THEORY = SGP/SGP4

EPOCH          = 2025-12-07T22:00:03.000096
MEAN_MOTION    = 15.51846155
ECCENTRICITY   = .00014698
INCLINATION    = 43.0002
RA_OF_ASC_NODE = 153.3429
ARG_OF_PERICENTER = 278.9723
MEAN_ANOMALY   = 62.7411

EPHEMERIS_TYPE = 0
CLASSIFICATION_TYPE = U
NORAD_CAT_ID   = 66492
ELEMENT_SET_NO = 999
REV_AT_EPOCH   = 486
BSTAR          = -.29740923E-1
MEAN_MOTION_DOT = -.1638596E-1
MEAN_MOTION_DDOT = 0

CCSDS_OMM_VERS = 2.0
CREATION_DATE  = 
ORIGINATOR     = 

OBJECT_NAME    = STARLINK-35597
OBJECT_ID      = 2025-263J
CENTER_NAME    = EARTH
REF_FRAME      = TEME
TIME_SYSTEM    = UTC
MEAN_ELEMENT_THEORY = SGP/SGP4

EPOCH          = 2025-12-07T22:00:03.000096
MEAN_MOTION    = 15.51846624
ECCENTRICITY   = .00013734
INCLINATION    = 43.0005
RA_OF_ASC_NODE = 153.3378
ARG_OF_PERICENTER = 268.5211
MEAN_ANOMALY   = 75.1083

EPHEMERIS_TYPE = 0
CLASSIFICATION_TYPE = U
NORAD_CAT_ID   = 66493
ELEMENT_SET_NO = 999
REV_AT_EPOCH   = 486
BSTAR          = -.29556101E-1
MEAN_MOTION_DOT = -.1629421E-1
MEAN_MOTION_DDOT = 0

CCSDS_OMM_VERS = 2.0
CREATION_DATE  = 
ORIGINATOR     = 

OBJECT_NAME    = STARLINK-35689
OBJECT_ID      = 2025-263K
CENTER_NAME    = EARTH
REF_FRAME      = TEME
TIME_SYSTEM    = UTC
MEAN_ELEMENT_THEORY = SGP/SGP4

EPOCH          = 2025-12-07T22:00:03.000096
MEAN_MOTION    = 15.51843763
ECCENTRICITY   = .00013149
INCLINATION    = 43.0003
RA_OF_ASC_NODE = 153.3530
ARG_OF_PERICENTER = 262.6776
MEAN_ANOMALY   = 75.2004

EPHEMERIS_TYPE = 0
CLASSIFICATION_TYPE = U
NORAD_CAT_ID   = 66494
ELEMENT_SET_NO = 999
REV_AT_EPOCH   = 486
BSTAR          = -.2944511E-1
MEAN_MOTION_DOT = -.162374E-1
MEAN_MOTION_DDOT = 0

CCSDS_OMM_VERS = 2.0
CREATION_DATE  = 
ORIGINATOR     = 

OBJECT_NAME    = STARLINK-35832
OBJECT_ID      = 2025-263L
CENTER_NAME    = EARTH
REF_FRAME      = TEME
TIME_SYSTEM    = UTC
MEAN_ELEMENT_THEORY = SGP/SGP4

EPOCH          = 2025-12-07T22:00:03.000096
MEAN_MOTION    = 15.51848251
ECCENTRICITY   = .00014606
INCLINATION    = 43.0001
RA_OF_ASC_NODE = 153.3333
ARG_OF_PERICENTER = 278.5225
MEAN_ANOMALY   = 67.0240

EPHEMERIS_TYPE = 0
CLASSIFICATION_TYPE = U
NORAD_CAT_ID   = 66495
ELEMENT_SET_NO = 999
REV_AT_EPOCH   = 486
BSTAR          = -.2982623E-1
MEAN_MOTION_DOT = -.1642925E-1
MEAN_MOTION_DDOT = 0

CCSDS_OMM_VERS = 2.0
CREATION_DATE  = 
ORIGINATOR     = 

OBJECT_NAME    = STARLINK-35909
OBJECT_ID      = 2025-263M
CENTER_NAME    = EARTH
REF_FRAME      = TEME
TIME_SYSTEM    = UTC
MEAN_ELEMENT_THEORY = SGP/SGP4

EPOCH          = 2025-12-07T22:00:03.000096
MEAN_MOTION    = 15.51852068
ECCENTRICITY   = .00013554
INCLINATION    = 43.0006
RA_OF_ASC_NODE = 153.3283
ARG_OF_PERICENTER = 268.8232
MEAN_ANOMALY   = 78.6374

EPHEMERIS_TYPE = 0
CLASSIFICATION_TYPE = U
NORAD_CAT_ID   = 66496
ELEMENT_SET_NO = 999
REV_AT_EPOCH   = 486
BSTAR          = -.29692774E-1
MEAN_MOTION_DOT = -.1636474E-1
MEAN_MOTION_DDOT = 0

CCSDS_OMM_VERS = 2.0
CREATION_DATE  = 
ORIGINATOR     = 

OBJECT_NAME    = STARLINK-35899
OBJECT_ID      = 2025-263N
CENTER_NAME    = EARTH
REF_FRAME      = TEME
TIME_SYSTEM    = UTC
MEAN_ELEMENT_THEORY = SGP/SGP4

EPOCH          = 2025-12-07T22:00:03.000096
MEAN_MOTION    = 15.51853353
ECCENTRICITY   = .00015698
INCLINATION    = 43.0002
RA_OF_ASC_NODE = 153.3231
ARG_OF_PERICENTER = 279.0309
MEAN_ANOMALY   = 70.3487

EPHEMERIS_TYPE = 0
CLASSIFICATION_TYPE = U
NORAD_CAT_ID   = 66497
ELEMENT_SET_NO = 999
REV_AT_EPOCH   = 486
BSTAR          = -.30019356E-1
MEAN_MOTION_DOT = -.16528E-1
MEAN_MOTION_DDOT = 0

CCSDS_OMM_VERS = 2.0
CREATION_DATE  = 
ORIGINATOR     = 

OBJECT_NAME    = STARLINK-35907
OBJECT_ID      = 2025-263P
CENTER_NAME    = EARTH
REF_FRAME      = TEME
TIME_SYSTEM    = UTC
MEAN_ELEMENT_THEORY = SGP/SGP4

EPOCH          = 2025-12-07T22:00:03.000096
MEAN_MOTION    = 15.51849362
ECCENTRICITY   = .00013587
INCLINATION    = 43.0004
RA_OF_ASC_NODE = 153.3181
ARG_OF_PERICENTER = 269.1568
MEAN_ANOMALY   = 82.1395

EPHEMERIS_TYPE = 0
CLASSIFICATION_TYPE = U
NORAD_CAT_ID   = 66498
ELEMENT_SET_NO = 999
REV_AT_EPOCH   = 486
BSTAR          = -.29626282E-1
MEAN_MOTION_DOT = -.1633038E-1
MEAN_MOTION_DDOT = 0

