STARLINK-34733          
1 66487U 25263C   25341.91670139 -.01636128  00000+0 -29691-1 0  9996
2 66487  43.0002 153.3730 0001419 276.4858  53.7250 15.51847124  4867
STARLINK-35515          
1 66488U 25263D   25341.91670139 -.01633515  00000+0 -29640-1 0  9998
2 66488  43.0002 153.3676 0001333 276.7551  55.3721 15.51845792  4865
STARLINK-35696          
1 66489U 25263E   25341.91670139 -.01637547  00000+0 -29721-1 0  9998
2 66489  43.0002 153.3625 0001451 278.5846  55.4633 15.51845532  4863
STARLINK-35693          
1 66490U 25263F   25341.91670139 -.01637766  00000+0 -29724-1 0  9996
2 66490  43.0002 153.3579 0001349 277.7975  58.1645 15.51847196  4864
STARLINK-35663          
1 66491U 25263G   25341.91670139 -.01643926  00000+0 -29845-1 0  9996
2 66491  43.0001 153.3480 0001472 278.6651  61.1303 15.51849834  4869
STARLINK-35673          
1 66492U 25263H   25341.91670139 -.01638596  00000+0 -29741-1 0  9999
2 66492  43.0002 153.3429 0001469 278.9723  62.7411 15.51846155  4863
STARLINK-35597          
1 66493U 25263J   25341.91670139 -.01629421  00000+0 -29556-1 0  9991
2 66493  43.0005 153.3378 0001373 268.5211  75.1083 15.51846624  4865
STARLINK-35689          
1 66494U 25263K   25341.91670139 -.01623740  00000+0 -29445-1 0  9997
2 66494  43.0003 153.3530 0001314 262.6776  75.2004 15.51843763  4865
STARLINK-35832          
1 66495U 25263L   25341.91670139 -.01642925  00000+0 -29826-1 0  9997
2 66495  43.0001 153.3333 0001460 278.5225  67.0240 15.51848251  4860
STARLINK-35909          
1 66496U 25263M   25341.91670139 -.01636474  00000+0 -29693-1 0  9992
2 66496  43.0006 153.3283 0001355 268.8232  78.6374 15.51852068  4860
STARLINK-35899          
1 66497U 25263N   25341.91670139 -.01652800  00000+0 -30019-1 0  9998
2 66497  43.0002 153.3231 0001569 279.0309  70.3487 15.51853353  4868
STARLINK-35907          
1 66498U 25263P   25341.91670139 -.01633038  00000+0 -29626-1 0  9993
2 66498  43.0004 153.3181 0001358 269.1568  82.1395 15.51849362  4862
